[{"OBJECT_NAME":"TIANMU-1 09","OBJECT_ID":"2023-101C","EPOCH":"2026-03-09T22:17:34.703232","MEAN_MOTION":15.29080822,"ECCENTRICITY":0.00049013,"INCLINATION":97.267,"RA_OF_ASC_NODE":121.1263,"ARG_OF_PERICENTER":139.4293,"MEAN_ANOMALY":220.7314,"EPHEMERIS_TYPE":0,"CLASSIFICATION_TYPE":"U","NORAD_CAT_ID":57401,"ELEMENT_SET_NO":999,"REV_AT_EPOCH":14647,"BSTAR":0.00030540035,"MEAN_MOTION_DOT":8.553e-5,"MEAN_MOTION_DDOT":0},{"OBJECT_NAME":"STARLINK-33685","OBJECT_ID":"2025-070F","EPOCH":"2026-03-09T13:14:17.112480","MEAN_MOTION":15.27597367,"ECCENTRICITY":0.0001141,"INCLINATION":42.9934,"RA_OF_ASC_NODE":260.7201,"ARG_OF_PERICENTER":246.9043,"MEAN_ANOMALY":113.1688,"EPHEMERIS_TYPE":0,"CLASSIFICATION_TYPE":"U","NORAD_CAT_ID":63465,"ELEMENT_SET_NO":999,"REV_AT_EPOCH":5295,"BSTAR":0.001387407,"MEAN_MOTION_DOT":0.00038134,"MEAN_MOTION_DDOT":0}]
